{"type": "FeatureCollection", "features": [ {"type": "Feature", "properties": {"norad_id": 42741, "name": "EUTELSAT 172B", "group": "eutelsat", "lat": 0.017802796249257943, "lon": -144.7261243701881, "alt_km": 35786.162631245825, "timestamp": "2025-12-26T20:30:45.604521+00:00", "meta": {"OBJECT_NAME": "EUTELSAT 172B", "OBJECT_ID": "2017-029B", "EPOCH": "2025-12-26T11:04:38.607744", "MEAN_MOTION": 1.00270806, "ECCENTRICITY": 8.38e-06, "INCLINATION": 0.0363, "RA_OF_ASC_NODE": 152.095, "ARG_OF_PERICENTER": 3.6927, "MEAN_ANOMALY": 277.5772, "EPHEMERIS_TYPE": 0, "CLASSIFICATION_TYPE": "U", "NORAD_CAT_ID": 42741, "ELEMENT_SET_NO": 999, "REV_AT_EPOCH": 3199, "BSTAR": 0, "MEAN_MOTION_DOT": 1.6e-07, "MEAN_MOTION_DDOT": 0}, "tle": {"line1": "1 42741U 17029B   25360.46155796  .00000016  00000+0  00000+0 0  9991", "line2": "2 42741   0.0363 152.0950 0000083   3.6927 277.5772  1.00270806 31995"}}, "geometry": {"type": "Point", "coordinates": [-144.7261243701881, 0.017802796249257943]}}, {"type": "Feature", "properties": {"norad_id": 44334, "name": "EUTELSAT 7C", "group": "eutelsat", "lat": -0.045976914971201974, "lon": 50.26347654919805, "alt_km": 35798.03171626404, "timestamp": "2025-12-26T20:30:45.604532+00:00", "meta": {"OBJECT_NAME": "EUTELSAT 7C", "OBJECT_ID": "2019-034B", "EPOCH": "2025-12-24T14:50:38.546016", "MEAN_MOTION": 1.00270796, "ECCENTRICITY": 0.00031593, "INCLINATION": 0.0726, "RA_OF_ASC_NODE": 177.7928, "ARG_OF_PERICENTER": 79.9691, "MEAN_ANOMALY": 65.2631, "EPHEMERIS_TYPE": 0, "CLASSIFICATION_TYPE": "U", "NORAD_CAT_ID": 44334, "ELEMENT_SET_NO": 999, "REV_AT_EPOCH": 508, "BSTAR": 0, "MEAN_MOTION_DOT": 6.9e-07, "MEAN_MOTION_DDOT": 0}, "tle": {"line1": "1 44334U 19034B   25358.61850169  .00000069  00000+0  00000+0 0  9997", "line2": "2 44334   0.0726 177.7928 0003159  79.9691  65.2631  1.00270796  5083"}}, "geometry": {"type": "Point", "coordinates": [50.26347654919805, -0.045976914971201974]}}, {"type": "Feature", "properties": {"norad_id": 44624, "name": "EUTELSAT 5 WEST B", "group": "eutelsat", "lat": 0.058808974093565836, "lon": 38.30641807110518, "alt_km": 35793.90748379848, "timestamp": "2025-12-26T20:30:45.604543+00:00", "meta": {"OBJECT_NAME": "EUTELSAT 5 WEST B", "OBJECT_ID": "2019-067A", "EPOCH": "2025-12-25T22:47:38.488128", "MEAN_MOTION": 1.0027127, "ECCENTRICITY": 0.00031947, "INCLINATION": 0.0622, "RA_OF_ASC_NODE": 345.9649, "ARG_OF_PERICENTER": 287.5339, "MEAN_ANOMALY": 158.1146, "EPHEMERIS_TYPE": 0, "CLASSIFICATION_TYPE": "U", "NORAD_CAT_ID": 44624, "ELEMENT_SET_NO": 999, "REV_AT_EPOCH": 2270, "BSTAR": 0, "MEAN_MOTION_DOT": -2.1e-07, "MEAN_MOTION_DDOT": 0}, "tle": {"line1": "1 44624U 19067A   25359.94975102 -.00000021  00000+0  00000+0 0  9996", "line2": "2 44624   0.0622 345.9649 0003194 287.5339 158.1146  1.00271270 22703"}}, "geometry": {"type": "Point", "coordinates": [38.30641807110518, 0.058808974093565836]}}, {"type": "Feature", "properties": {"norad_id": 45027, "name": "EUTELSAT KONNECT", "group": "eutelsat", "lat": -0.037239593544484174, "lon": 50.4651944880881, "alt_km": 35789.739465789775, "timestamp": "2025-12-26T20:30:45.604554+00:00", "meta": {"OBJECT_NAME": "EUTELSAT KONNECT", "OBJECT_ID": "2020-005B", "EPOCH": "2025-12-24T23:24:19.351008", "MEAN_MOTION": 1.00267204, "ECCENTRICITY": 0.0001571, "INCLINATION": 0.069, "RA_OF_ASC_NODE": 93.7711, "ARG_OF_PERICENTER": 204.5991, "MEAN_ANOMALY": 153.6522, "EPHEMERIS_TYPE": 0, "CLASSIFICATION_TYPE": "U", "NORAD_CAT_ID": 45027, "ELEMENT_SET_NO": 999, "REV_AT_EPOCH": 2259, "BSTAR": 0, "MEAN_MOTION_DOT": 7e-07, "MEAN_MOTION_DDOT": 0}, "tle": {"line1": "1 45027U 20005B   25358.97522397  .00000070  00000+0  00000+0 0  9997", "line2": "2 45027   0.0690  93.7711 0001571 204.5991 153.6522  1.00267204 22591"}}, "geometry": {"type": "Point", "coordinates": [50.4651944880881, -0.037239593544484174]}}, {"type": "Feature", "properties": {"norad_id": 49056, "name": "EUTELSAT QUANTUM", "group": "eutelsat", "lat": 0.03074944136841157, "lon": 90.9843672062675, "alt_km": 35800.9844862646, "timestamp": "2025-12-26T20:30:45.604565+00:00", "meta": {"OBJECT_NAME": "EUTELSAT QUANTUM", "OBJECT_ID": "2021-069B", "EPOCH": "2025-12-26T04:01:38.790048", "MEAN_MOTION": 1.00271273, "ECCENTRICITY": 0.00035941, "INCLINATION": 0.0134, "RA_OF_ASC_NODE": 25.5084, "ARG_OF_PERICENTER": 258.1659, "MEAN_ANOMALY": 279.3536, "EPHEMERIS_TYPE": 0, "CLASSIFICATION_TYPE": "U", "NORAD_CAT_ID": 49056, "ELEMENT_SET_NO": 999, "REV_AT_EPOCH": 1619, "BSTAR": 0, "MEAN_MOTION_DOT": 1.48e-06, "MEAN_MOTION_DDOT": 0}, "tle": {"line1": "1 49056U 21069B   25360.16781007  .00000148  00000+0  00000+0 0  9999", "line2": "2 49056   0.0134  25.5084 0003594 258.1659 279.3536  1.00271273 16190"}}, "geometry": {"type": "Point", "coordinates": [90.9843672062675, 0.03074944136841157]}}, {"type": "Feature", "properties": {"norad_id": 53765, "name": "EUTELSAT KONNECT VHTS", "group": "eutelsat", "lat": -0.033965571298587585, "lon": 45.98793668286437, "alt_km": 35797.40281912821, "timestamp": "2025-12-26T20:30:45.604576+00:00", "meta": {"OBJECT_NAME": "EUTELSAT KONNECT VHTS", "OBJECT_ID": "2022-110A", "EPOCH": "2025-12-26T08:51:38.739168", "MEAN_MOTION": 1.00265206, "ECCENTRICITY": 0.00025436, "INCLINATION": 0.058, "RA_OF_ASC_NODE": 98.5588, "ARG_OF_PERICENTER": 155.2379, "MEAN_ANOMALY": 336.9389, "EPHEMERIS_TYPE": 0, "CLASSIFICATION_TYPE": "U", "NORAD_CAT_ID": 53765, "ELEMENT_SET_NO": 999, "REV_AT_EPOCH": 509, "BSTAR": 0, "MEAN_MOTION_DOT": 3.8e-07, "MEAN_MOTION_DDOT": 0}, "tle": {"line1": "1 53765U 22110A   25360.36919837  .00000038  00000+0  00000+0 0  9993", "line2": "2 53765   0.0580  98.5588 0002543 155.2379 336.9389  1.00265206  5097"}}, "geometry": {"type": "Point", "coordinates": [45.98793668286437, -0.033965571298587585]}}, {"type": "Feature", "properties": {"norad_id": 54048, "name": "EUTELSAT HOTBIRD 13F", "group": "eutelsat", "lat": 0.050681623631827204, "lon": 56.28744496545758, "alt_km": 35780.855622387346, "timestamp": "2025-12-26T20:30:45.604586+00:00", "meta": {"OBJECT_NAME": "EUTELSAT HOTBIRD 13F", "OBJECT_ID": "2022-134A", "EPOCH": "2025-12-24T23:25:56.697024", "MEAN_MOTION": 1.00270775, "ECCENTRICITY": 0.0002211, "INCLINATION": 0.0545, "RA_OF_ASC_NODE": 289.4002, "ARG_OF_PERICENTER": 71.817, "MEAN_ANOMALY": 97.0057, "EPHEMERIS_TYPE": 0, "CLASSIFICATION_TYPE": "U", "NORAD_CAT_ID": 54048, "ELEMENT_SET_NO": 999, "REV_AT_EPOCH": 1163, "BSTAR": 0, "MEAN_MOTION_DOT": 1.08e-06, "MEAN_MOTION_DDOT": 0}, "tle": {"line1": "1 54048U 22134A   25358.97635066  .00000108  00000+0  00000+0 0  9995", "line2": "2 54048   0.0545 289.4002 0002211  71.8170  97.0057  1.00270775 11630"}}, "geometry": {"type": "Point", "coordinates": [56.28744496545758, 0.050681623631827204]}}, {"type": "Feature", "properties": {"norad_id": 54225, "name": "EUTELSAT HOTBIRD 13G", "group": "eutelsat", "lat": 0.013802165564236375, "lon": 56.23040760227852, "alt_km": 35790.10750190696, "timestamp": "2025-12-26T20:30:45.604597+00:00", "meta": {"OBJECT_NAME": "EUTELSAT HOTBIRD 13G", "OBJECT_ID": "2022-146A", "EPOCH": "2025-12-24T00:28:38.654112", "MEAN_MOTION": 1.00268836, "ECCENTRICITY": 0.00017131, "INCLINATION": 0.0535, "RA_OF_ASC_NODE": 227.8066, "ARG_OF_PERICENTER": 307.349, "MEAN_ANOMALY": 297.8001, "EPHEMERIS_TYPE": 0, "CLASSIFICATION_TYPE": "U", "NORAD_CAT_ID": 54225, "ELEMENT_SET_NO": 999, "REV_AT_EPOCH": 571, "BSTAR": 0, "MEAN_MOTION_DOT": 1.08e-06, "MEAN_MOTION_DDOT": 0}, "tle": {"line1": "1 54225U 22146A   25358.01989183  .00000108  00000+0  00000+0 0  9992", "line2": "2 54225   0.0535 227.8066 0001713 307.3490 297.8001  1.00268836  5716"}}, "geometry": {"type": "Point", "coordinates": [56.23040760227852, 0.013802165564236375]}}, {"type": "Feature", "properties": {"norad_id": 54259, "name": "EUTELSAT 10B", "group": "eutelsat", "lat": -0.028854607688843098, "lon": 53.28593333346072, "alt_km": 35787.056875572816, "timestamp": "2025-12-26T20:30:45.604608+00:00", "meta": {"OBJECT_NAME": "EUTELSAT 10B", "OBJECT_ID": "2022-157A", "EPOCH": "2025-12-25T22:01:38.544672", "MEAN_MOTION": 1.00270219, "ECCENTRICITY": 6.649e-05, "INCLINATION": 0.0617, "RA_OF_ASC_NODE": 95.4372, "ARG_OF_PERICENTER": 60.6723, "MEAN_ANOMALY": 278.9927, "EPHEMERIS_TYPE": 0, "CLASSIFICATION_TYPE": "U", "NORAD_CAT_ID": 54259, "ELEMENT_SET_NO": 999, "REV_AT_EPOCH": 1128, "BSTAR": 0, "MEAN_MOTION_DOT": 9e-07, "MEAN_MOTION_DDOT": 0}, "tle": {"line1": "1 54259U 22157A   25359.91780723  .00000090  00000+0  00000+0 0  9990", "line2": "2 54259   0.0617  95.4372 0000664  60.6723 278.9927  1.00270219 11289"}}, "geometry": {"type": "Point", "coordinates": [53.28593333346072, -0.028854607688843098]}}, {"type": "Feature", "properties": {"norad_id": 59346, "name": "EUTELSAT 36D", "group": "eutelsat", "lat": 0.028378129652888884, "lon": 79.13658961628084, "alt_km": 35786.41977542255, "timestamp": "2025-12-26T20:30:45.604618+00:00", "meta": {"OBJECT_NAME": "EUTELSAT 36D", "OBJECT_ID": "2024-059A", "EPOCH": "2025-12-26T02:56:01.083264", "MEAN_MOTION": 1.00263096, "ECCENTRICITY": 4.929e-05, "INCLINATION": 0.0182, "RA_OF_ASC_NODE": 36.9532, "ARG_OF_PERICENTER": 25.8871, "MEAN_ANOMALY": 111.9168, "EPHEMERIS_TYPE": 0, "CLASSIFICATION_TYPE": "U", "NORAD_CAT_ID": 59346, "ELEMENT_SET_NO": 999, "REV_AT_EPOCH": 641, "BSTAR": 0, "MEAN_MOTION_DOT": 1.77e-06, "MEAN_MOTION_DDOT": 0}, "tle": {"line1": "1 59346U 24059A   25360.12223476  .00000177  00000+0  00000+0 0  9993", "line2": "2 59346   0.0182  36.9532 0000492  25.8871 111.9168  1.00263096  6419"}}, "geometry": {"type": "Point", "coordinates": [79.13658961628084, 0.028378129652888884]}}]}